[{"OBJECT_NAME":"NINGXIA-1 10","OBJECT_ID":"2021-064E","EPOCH":"2026-03-09T23:44:17.361312","MEAN_MOTION":14.0853583,"ECCENTRICITY":0.00072731,"INCLINATION":45.0007,"RA_OF_ASC_NODE":314.6094,"ARG_OF_PERICENTER":147.7012,"MEAN_ANOMALY":212.4271,"EPHEMERIS_TYPE":0,"CLASSIFICATION_TYPE":"U","NORAD_CAT_ID":49022,"ELEMENT_SET_NO":999,"REV_AT_EPOCH":24024,"BSTAR":-7.1787842e-5,"MEAN_MOTION_DOT":-2.56e-6,"MEAN_MOTION_DDOT":0},{"OBJECT_NAME":"CZ-6A DEB","OBJECT_ID":"2024-140PR","EPOCH":"2026-03-09T13:36:18.125280","MEAN_MOTION":14.18698936,"ECCENTRICITY":0.00521232,"INCLINATION":88.9951,"RA_OF_ASC_NODE":286.0606,"ARG_OF_PERICENTER":148.5631,"MEAN_ANOMALY":211.8692,"EPHEMERIS_TYPE":0,"CLASSIFICATION_TYPE":"U","NORAD_CAT_ID":61123,"ELEMENT_SET_NO":999,"REV_AT_EPOCH":8005,"BSTAR":0.00036604153,"MEAN_MOTION_DOT":7.84e-6,"MEAN_MOTION_DDOT":0}]
